ONEWEB-0389             
1 50469U 21132A   25015.76964064 -.00000289  00000+0 -77703-3 0  9995
2 50469  87.9096 108.9575 0001834  93.5429 266.5913 13.17648820149947
ONEWEB-0390             
1 50470U 21132B   25015.77134134  .00000097  00000+0  21671-3 0  9993
2 50470  87.9097 108.9644 0002118 106.3059 253.8305 13.17647261149947
ONEWEB-0391             
1 50471U 21132C   25015.77302512  .00000036  00000+0  60774-4 0  9992
2 50471  87.9106 108.9643 0002342  82.7372 277.4026 13.17651676149949
ONEWEB-0392             
1 50472U 21132D   25015.80340432  .00000028  00000+0  38924-4 0  9993
2 50472  87.9092 108.9281 0001903  90.8843 269.2507 13.17648123149987
ONEWEB-0393             
1 50473U 21132E   25015.77657468  .00000059  00000+0  11801-3 0  9998
2 50473  87.9101 108.9316 0001826  98.8937 261.2401 13.17651690149971
ONEWEB-0394             
1 50474U 21132F   25015.69600723 -.00000017  00000+0 -75640-4 0  9990
2 50474  87.9079  78.3956 0001833  97.3662 262.7678 13.18683844153393
ONEWEB-0395             
1 50475U 21132G   25015.79863852 -.00000147  00000+0 -45097-3 0  9992
2 50475  87.8909 124.2093 0001929  98.7921 261.3425 13.11417785147904
ONEWEB-0396             
1 50476U 21132H   25015.68967026 -.00000012  00000+0 -63048-4 0  9997
2 50476  87.9086  78.4038 0001770  96.8931 263.2402 13.18688608153437
ONEWEB-0397             
1 50477U 21132J   25016.15917097  .00000115  00000+0  25991-3 0  9990
2 50477  87.9085  78.3116 0001637  97.6590 262.4728 13.18685432154744
ONEWEB-0398             
1 50478U 21132K   25015.84272271 -.00000032  00000+0 -12728-3 0  9998
2 50478  87.8903 124.1717 0002125 108.3347 251.8012 13.11413705147805
ONEWEB-0399             
1 50479U 21132L   25015.82916332  .00000473  00000+0  12992-2 0  9999
2 50479  87.8906 124.1950 0001396  95.5719 264.5568 13.11414710147799
ONEWEB-0400             
1 50480U 21132M   25015.68335011  .00000043  00000+0  76056-4 0  9990
2 50480  87.9080  78.4018 0002045 104.6602 255.4757 13.18688174153404
ONEWEB-0401             
1 50481U 21132N   25015.72603006  .00000081  00000+0  17293-3 0  9997
2 50481  87.9081  78.3874 0001545 101.7639 258.3666 13.18688743153411
ONEWEB-0402             
1 50482U 21132P   25016.07063467  .00000050  00000+0  94829-4 0  9995
2 50482  87.9080  78.3166 0001162 104.8790 255.2471 13.18687836154763
ONEWEB-0403             
1 50483U 21132Q   25015.71496998  .00000001  00000+0 -30127-4 0  9993
2 50483  87.9082  78.3993 0001896  97.1472 262.9876 13.18683815153394
ONEWEB-0404             
1 50484U 21132R   25015.81048587  .00000364  00000+0  99054-3 0  9996
2 50484  87.8914 124.1874 0001729  92.6406 267.4919 13.11414484147880
ONEWEB-0405             
1 50485U 21132S   25015.73077305 -.00000280  00000+0 -74258-3 0  9996
2 50485  87.9083  78.3859 0001516  97.7367 262.3937 13.18685222153796
ONEWEB-0406             
1 50486U 21132T   25015.71971183 -.00000325  00000+0 -85791-3 0  9996
2 50486  87.9084  78.4044 0002414  92.7743 267.3666 13.18685538153420
ONEWEB-0407             
1 50487U 21132U   25015.71338296 -.00000122  00000+0 -34346-3 0  9994
2 50487  87.9078  78.3978 0001661  98.3521 261.7799 13.18687646153368
ONEWEB-0409             
1 50488U 21132V   25015.80881122  .00000303  00000+0  81894-3 0  9995
2 50488  87.8905 124.1659 0001926  99.3170 260.8176 13.11416620147770
ONEWEB-0412             
1 50489U 21132W   25015.70231497  .00000040  00000+0  68383-4 0  9996
2 50489  87.9083  78.4100 0001398 102.9041 257.2247 13.18688489153454
ONEWEB-0413             
1 50490U 21132X   25015.70705825  .00000024  00000+0  28121-4 0  9997
2 50490  87.9083  78.4211 0001464 106.0695 254.0598 13.18687917153395
ONEWEB-0414             
1 50491U 21132Y   25015.69283016 -.00000086  00000+0 -24971-3 0  9997
2 50491  87.9081  78.3940 0001540  95.9273 264.2034 13.18687300153423
ONEWEB-0417             
1 50492U 21132Z   25015.70075255  .00000028  00000+0  38135-4 0  9996
2 50492  87.9087  78.4103 0001952  95.1795 264.9559 13.18684582153406
ONEWEB-0418             
1 50493U 21132AA  25016.16535464  .00000104  00000+0  22992-3 0  9999
2 50493  87.9083  78.3122 0002066  90.4674 269.6695 13.18688123154807
ONEWEB-0419             
1 50494U 21132AB  25015.72761459  .00000107  00000+0  23937-3 0  9999
2 50494  87.9080  78.4090 0002182 100.5383 259.5995 13.18688360153385
ONEWEB-0420             
1 50495U 21132AC  25015.69441701  .00000064  00000+0  12860-3 0  9996
2 50495  87.9080  78.4249 0001709 109.6856 250.4461 13.18683617153378
ONEWEB-0421             
1 50496U 21132AD  25015.68810146 -.00000005  00000+0 -45445-4 0  9992
2 50496  87.9088  78.4082 0001520  96.6867 263.4438 13.18683953153416
ONEWEB-0424             
1 50497U 21132AE  25015.72287290  .00000046  00000+0  83032-4 0  9993
2 50497  87.9082  78.3968 0002343 102.5695 257.5699 13.18687908153443
ONEWEB-0426             
1 50498U 21132AF  25015.68493012  .00000057  00000+0  11088-3 0  9993
2 50498  87.9079  78.4132 0001772  82.9142 277.2192 13.18683109153386
ONEWEB-0427             
1 50499U 21132AG  25015.72128971  .00000033  00000+0  51723-4 0  9993
2 50499  87.9079  78.3861 0001977  94.9395 265.1963 13.18688406153416
ONEWEB-0429             
1 50500U 21132AH  25015.70864319 -.00000287  00000+0 -76031-3 0  9998
2 50500  87.9085  78.4079 0001742 106.6630 253.4694 13.18685712153385
ONEWEB-0430             
1 50501U 21132AJ  25015.69757296  .00000000  00000+0 -33987-4 0  9998
2 50501  87.9083  78.4077 0002142 108.3799 251.7566 13.18688274153422
ONEWEB-0432             
1 50502U 21132AK  25015.72919243  .00000098  00000+0  21464-3 0  9997
2 50502  87.9082  78.3915 0002804  91.7353 268.4101 13.18683672153380
ONEWEB-0440             
1 50503U 21132AL  25015.71655598  .00000014  00000+0  36762-5 0  9994
2 50503  87.9085  78.3893 0001410 103.5842 256.5447 13.18684511153379
ONEWEB-0450             
1 50504U 21132AM  25015.71035998  .00000011  00000+0 -60819-5 0  9999
2 50504  87.9085  78.4189 0001863 113.6530 246.4798 13.18688507153407
ONEWEB-0410             
1 51622U 22012A   25015.78820263 -.00000071  00000+0 -21553-3 0  9990
2 51622  87.9094 108.9284 0002201  64.6901 295.4458 13.17650821145560
ONEWEB-0411             
1 51623U 22012B   25015.84364294 -.00000330  00000+0 -98300-3 0  9997
2 51623  87.8919 139.3341 0002174 114.6895 245.4459 13.10375278142819
ONEWEB-0415             
1 51624U 22012C   25015.84033807 -.00000168  00000+0 -51735-3 0  9991
2 51624  87.8917 139.3470 0001881 110.5844 249.5485 13.10375750142813
ONEWEB-0416             
1 51625U 22012D   25015.85196328  .00000436  00000+0  12113-2 0  9993
2 51625  87.8921 139.3518 0001624 105.1794 254.9513 13.10377148141578
ONEWEB-0422             
1 51626U 22012E   25015.79832990  .00000074  00000+0  15623-3 0  9997
2 51626  87.9098 108.9305 0001510 132.3335 227.7924 13.17646821145671
ONEWEB-0423             
1 51627U 22012F   25015.71564608 -.00000001  00000+0 -34703-4 0  9991
2 51627  87.9099 108.9511 0001612 105.0473 255.0837 13.17647027145558
ONEWEB-0425             
1 51628U 22012G   25015.86192458  .00000684  00000+0  19222-2 0  9990
2 51628  87.8916 139.3260 0001436  93.3914 266.7378 13.10374864141574
ONEWEB-0428             
1 51629U 22012H   25015.84198841 -.00000108  00000+0 -34618-3 0  9991
2 51629  87.8921 139.3491 0001617 114.7993 245.3302 13.10374474142818
ONEWEB-0431             
1 51630U 22012J   25015.88833342 -.00000264  00000+0 -79272-3 0  9997
2 51630  87.8907 139.3227 0001982 122.4919 237.6400 13.10369343141596
ONEWEB-0434             
1 51631U 22012K   25015.86525227  .00000710  00000+0  19988-2 0  9997
2 51631  87.8917 139.3566 0001366  79.1218 281.0063 13.10372250141577
ONEWEB-0435             
1 51632U 22012L   25015.87354618  .00000514  00000+0  14358-2 0  9991
2 51632  87.8915 139.3471 0001405 122.7268 237.3995 13.10370559141562
ONEWEB-0436             
1 51633U 22012M   25015.78314670  .00000065  00000+0  13451-3 0  9991
2 51633  87.9091 108.9333 0001770 115.5330 244.5985 13.17648727145546
ONEWEB-0438             
1 51634U 22012N   25015.85693937  .00000639  00000+0  17953-2 0  9993
2 51634  87.8920 139.3507 0001508  99.7517 260.3781 13.10378461141596
ONEWEB-0439             
1 51635U 22012P   25015.86027116  .00000769  00000+0  21670-2 0  9990
2 51635  87.8919 139.3365 0001701  99.9658 260.1661 13.10374470141579
ONEWEB-0442             
1 51636U 22012Q   25015.77556171  .00000013  00000+0  15035-6 0  9993
2 51636  87.9099 108.9769 0002067  87.8495 272.2873 13.17647387145537
ONEWEB-0443             
1 51637U 22012R   25015.79496026  .00000065  00000+0  13521-3 0  9990
2 51637  87.9099 108.9846 0001457  96.9891 263.1407 13.17647179145583
ONEWEB-0444             
1 51638U 22012S   25015.85030310  .00000336  00000+0  92664-3 0  9994
2 51638  87.8916 139.3496 0001421 109.5765 250.5515 13.10376984141584
ONEWEB-0445             
1 51639U 22012T   25015.87189146  .00000525  00000+0  14665-2 0  9993
2 51639  87.8907 139.3077 0001744 102.3670 257.7652 13.10370307141599
ONEWEB-0446             
1 51640U 22012U   25015.84864118  .00000078  00000+0  18754-3 0  9998
2 51640  87.8921 139.3560 0001841 103.9329 256.2003 13.10375538141573
ONEWEB-0448             
1 51641U 22012V   25015.85360814  .00000871  00000+0  24585-2 0  9993
2 51641  87.8919 139.3549 0001395 119.2425 240.8842 13.10380383141540
ONEWEB-0449             
1 51642U 22012W   25015.85860749  .00000657  00000+0  18444-2 0  9995
2 51642  87.8913 139.3374 0001541  95.2256 264.9048 13.10375114141551
ONEWEB-0451             
1 51643U 22012X   25015.77977210  .00000050  00000+0  96047-4 0  9993
2 51643  87.9092 108.9272 0001710  97.4078 262.7248 13.17646990145523
ONEWEB-0452             
1 51644U 22012Y   25015.70214774  .00000033  00000+0  51476-4 0  9994
2 51644  87.9097 108.9954 0001513  96.0378 264.0926 13.17646204145521
